NORAD_CAT_ID,OBJECT_NAME,OBJECT_TYPE,EPOCH,MEAN_MOTION,ECCENTRICITY,INCLINATION,RA_OF_ASC_NODE,ARG_OF_PERICENTER,MEAN_ANOMALY,BSTAR,MEAN_MOTION_DOT,MEAN_MOTION_DDOT,TLE_LINE0,TLE_LINE1,TLE_LINE2,SEMIMAJOR_AXIS,PERIOD,APOGEE,PERIGEE,DECAYED
53847.0,STARLINK-4777,PAYLOAD,2023-01-30 22:21:36,15.08847063,0.0001203,53.2193,343.6829,108.12,251.9923,1.5597e-05,-4e-07,0.0,0 STARLINK-4777,1 53847U 22114AF  23030.93167209 -.00000040  00000-0  15597-4 0  9998,2 53847  53.2193 343.6829 0001203 108.1200 251.9923 15.08847063 21270,6917.859,95.437,540.556,538.892,0.0
53847.0,STARLINK-4777,PAYLOAD,2023-01-31 06:18:31,15.08856619,0.000119,53.2194,342.1958,99.6402,260.4724,7.7318e-05,9.43e-06,0.0,0 STARLINK-4777,1 53847U 22114AF  23031.26286240  .00000943  00000-0  77318-4 0  9992,2 53847  53.2194 342.1958 0001190  99.6402 260.4724 15.08856619 21328,6917.83,95.437,540.518,538.871,0.0
53847.0,STARLINK-4777,PAYLOAD,2023-02-01 06:09:18,15.08848711,0.000116,53.2193,337.7355,87.6464,272.4661,7.1641e-05,8.53e-06,0.0,0 STARLINK-4777,1 53847U 22114AF  23032.25646501  .00000853  00000-0  71641-4 0  9995,2 53847  53.2193 337.7355 0001160  87.6464 272.4661 15.08848711 21473,6917.854,95.437,540.521,538.916,0.0
53847.0,STARLINK-4777,PAYLOAD,2023-02-02 02:49:20,15.08838546,0.0001181,53.2195,333.8701,90.3279,269.7848,-9.6923e-05,-1.83e-05,0.0,0 STARLINK-4777,1 53847U 22114AF  23033.11759826 -.00001830  00000-0 -96923-4 0  9994,2 53847  53.2195 333.8701 0001181  90.3279 269.7848 15.08838546 21601,6917.885,95.438,540.567,538.933,0.0
53847.0,STARLINK-4777,PAYLOAD,2023-02-02 21:53:57,15.08843423,0.0001118,53.22,330.3021,87.7396,272.3724,5.1115e-05,5.26e-06,0.0,0 STARLINK-4777,1 53847U 22114AF  23033.91247054  .00000526  00000-0  51115-4 0  9990,2 53847  53.2200 330.3021 0001118  87.7396 272.3724 15.08843423 21721,6917.87,95.437,540.508,538.962,0.0
53847.0,STARLINK-4777,PAYLOAD,2023-02-03 02:40:06,15.08851597,0.0001085,53.2192,329.4121,87.7453,272.3663,8.5939e-05,1.081e-05,0.0,0 STARLINK-4777,1 53847U 22114AF  23034.11118384  .00001081  00000-0  85939-4 0  9994,2 53847  53.2192 329.4121 0001085  87.7453 272.3663 15.08851597 21754,6917.845,95.437,540.461,538.959,0.0
53847.0,STARLINK-4777,PAYLOAD,2023-02-04 13:38:36,15.08837691,0.0001205,53.2184,322.8694,91.1323,268.9807,-2.223e-06,-3.23e-06,0.0,0 STARLINK-4777,1 53847U 22114AF  23035.56848037 -.00000323  00000-0 -22230-5 0  9995,2 53847  53.2184 322.8694 0001205  91.1323 268.9807 15.08837691 21970,6917.887,95.438,540.586,538.919,0.0
53847.0,STARLINK-4777,PAYLOAD,2023-02-04 23:10:54,15.08868416,0.000116,53.2187,321.0853,95.1584,264.954,-0.00027277,-4.63e-05,0.0,0 STARLINK-4777,1 53847U 22114AF  23035.96591190 -.00004630  00000-0 -27277-3 0  9993,2 53847  53.2187 321.0853 0001160  95.1584 264.9540 15.08868416 22031,6917.794,95.436,540.461,538.856,0.0
53847.0,STARLINK-4777,PAYLOAD,2023-02-05 13:29:22,15.08844587,0.0001287,53.218,318.4086,88.8991,271.2149,0.000136,1.877e-05,0.0,0 STARLINK-4777,1 53847U 22114AF  23036.56206931  .00001877  00000-0  13600-3 0  9999,2 53847  53.2180 318.4086 0001287  88.8991 271.2149 15.08844587 22122,6917.866,95.437,540.622,538.841,0.0
53847.0,STARLINK-4777,PAYLOAD,2023-02-06 02:12:26,15.08856426,0.0001104,53.2199,316.0295,81.1597,278.952,0.00020041,2.905e-05,0.0,0 STARLINK-4777,1 53847U 22114AF  23037.09197765  .00002905  00000-0  20041-3 0  9992,2 53847  53.2199 316.0295 0001104  81.1597 278.9520 15.08856426 22205,6917.83,95.437,540.459,538.931,0.0
53847.0,STARLINK-4777,PAYLOAD,2023-02-06 13:20:10,15.08840534,7.4e-05,53.2202,313.9495,86.3667,273.7409,3.0041e-05,1.91e-06,0.0,0 STARLINK-4777,1 53847U 22114AF  23037.55567164  .00000191  00000-0  30041-4 0  9994,2 53847  53.2202 313.9495 0000740  86.3667 273.7409 15.08840534 22817,6917.879,95.438,540.256,539.232,0.0
53847.0,STARLINK-4777,PAYLOAD,2023-02-06 21:17:06,15.08836984,8.7e-05,53.2193,312.4617,93.5997,266.5094,-4.61e-05,-1.021e-05,0.0,0 STARLINK-4777,1 53847U 22114AF  23037.88687622 -.00001021  00000-0 -46100-4 0  9990,2 53847  53.2193 312.4617 0000870  93.5997 266.5094 15.08836984 22326,6917.89,95.438,540.356,539.153,0.0
53847.0,STARLINK-4777,PAYLOAD,2023-02-07 03:38:38,15.08848539,0.0001115,53.2194,311.271,77.5788,282.5329,-1.7754e-05,-5.7e-06,0.0,0 STARLINK-4777,1 53847U 22114AF  23038.15182969 -.00000570  00000-0 -17754-4 0  9996,2 53847  53.2194 311.2710 0001115  77.5788 282.5329 15.08848539 22363,6917.854,95.437,540.491,538.948,0.0
53847.0,STARLINK-4777,PAYLOAD,2023-02-07 21:07:53,15.08837644,0.0001052,53.2186,308.0032,75.164,284.9469,-6.2588e-05,-1.284e-05,0.0,0 STARLINK-4777,1 53847U 22114AF  23038.88047650 -.00001284  00000-0 -62588-4 0  9991,2 53847  53.2186 308.0032 0001052  75.1640 284.9469 15.08837644 23015,6917.888,95.438,540.48,539.025,0.0
53847.0,STARLINK-4777,PAYLOAD,2023-02-07 22:43:16,15.08839589,9.42e-05,53.2199,307.7043,96.3161,263.7938,-3.9226e-05,-9.12e-06,0.0,0 STARLINK-4777,1 53847U 22114AF  23038.94671393 -.00000912  00000-0 -39226-4 0  9995,2 53847  53.2199 307.7043 0000942  96.3161 263.7938 15.08839589 22483,6917.882,95.438,540.398,539.095,0.0
53847.0,STARLINK-4777,PAYLOAD,2023-02-08 03:29:25,15.08840249,0.0001053,53.2198,306.8108,86.9795,273.1317,0.00010986,1.461e-05,0.0,0 STARLINK-4777,1 53847U 22114AF  23039.14542916  .00001461  00000-0  10986-3 0  9995,2 53847  53.2198 306.8108 0001053  86.9795 273.1317 15.08840249 23051,6917.88,95.438,540.473,539.016,0.0
53847.0,STARLINK-4777,PAYLOAD,2023-02-08 20:58:40,15.08826365,7.81e-05,53.2191,303.5395,77.7704,282.3375,3.6453e-05,2.92e-06,0.0,0 STARLINK-4777,1 53847U 22114AF  23039.87408501  .00000292  00000-0  36453-4 0  9995,2 53847  53.2191 303.5395 0000781  77.7704 282.3375 15.08826365 23162,6917.922,95.438,540.327,539.247,0.0
53847.0,STARLINK-4777,PAYLOAD,2023-02-09 03:20:13,15.08837699,0.0001099,53.2192,302.3493,95.2102,264.9015,9.7663e-06,-1.32e-06,0.0,0 STARLINK-4777,1 53847U 22114AF  23040.13904011 -.00000132  00000-0  97663-5 0  9998,2 53847  53.2192 302.3493 0001099  95.2102 264.9015 15.08837699 22662,6917.887,95.438,540.513,538.992,0.0
53847.0,STARLINK-4777,PAYLOAD,2023-02-09 20:49:28,15.08836805,9.96e-05,53.2188,299.0804,98.7829,261.3276,5.7341e-06,-1.96e-06,0.0,0 STARLINK-4777,1 53847U 22114AF  23040.86768715 -.00000196  00000-0  57341-5 0  9996,2 53847  53.2188 299.0804 0000996  98.7829 261.3276 15.08836805 23315,6917.89,95.438,540.444,539.066,0.0
53847.0,STARLINK-4777,PAYLOAD,2023-02-10 03:10:59,15.08852075,0.0001022,53.2192,297.8896,87.4489,272.662,0.00012286,1.669e-05,0.0,0 STARLINK-4777,1 53847U 22114AF  23041.13263380  .00001669  00000-0  12286-3 0  9997,2 53847  53.2192 297.8896 0001022  87.4489 272.6620 15.08852075 23354,6917.843,95.437,540.415,539.001,0.0
53847.0,STARLINK-4777,PAYLOAD,2023-02-10 23:51:00,15.08849338,0.0001383,53.2187,294.0246,86.4257,273.6894,0.00018704,2.691e-05,0.0,0 STARLINK-4777,1 53847U 22114AF  23041.99375527  .00002691  00000-0  18704-3 0  9995,2 53847  53.2187 294.0246 0001383  86.4257 273.6894 15.08849338 22944,6917.852,95.437,540.674,538.76,0.0
53847.0,STARLINK-4777,PAYLOAD,2023-02-11 17:20:16,15.08834645,8.13e-05,53.2189,290.7535,39.5881,320.5171,-8.1323e-05,-1.581e-05,0.0,0 STARLINK-4777,1 53847U 22114AF  23042.72241706 -.00001581  00000-0 -81323-4 0  9995,2 53847  53.2189 290.7535 0000813  39.5881 320.5171 15.08834645 23057,6917.897,95.438,540.324,539.199,0.0
53847.0,STARLINK-4777,PAYLOAD,2023-02-12 17:11:03,15.088438,0.0001224,53.2185,286.2943,83.4082,276.705,-0.00011048,-2.046e-05,0.0,0 STARLINK-4777,1 53847U 22114AF  23043.71601562 -.00002046  00000-0 -11048-3 0  9998,2 53847  53.2185 286.2943 0001224  83.4082 276.7050 15.08843800 23202,6917.869,95.437,540.581,538.887,0.0
53847.0,STARLINK-4777,PAYLOAD,2023-02-13 02:43:21,15.08845709,0.0001413,53.2158,284.5076,79.1797,280.9354,1.2425e-05,-9e-07,0.0,0 STARLINK-4777,1 53847U 22114AF  23044.11344637 -.00000090  00000-0  12425-4 0  9997,2 53847  53.2158 284.5076 0001413  79.1797 280.9354 15.08845709 23265,6917.863,95.437,540.705,538.75,0.0
53847.0,STARLINK-4777,PAYLOAD,2023-02-13 09:04:58,15.08769035,0.0001373,53.2155,283.3228,65.6593,294.4543,-0.00073723,-0.00011979,0.0,0 STARLINK-4777,1 53847U 22114AF  23044.37845518 -.00011979  00000-0 -73723-3 0  9995,2 53847  53.2155 283.3228 0001373  65.6593 294.4543 15.08769035 23309,6918.097,95.442,540.912,539.012,0.0
53847.0,STARLINK-4777,PAYLOAD,2023-02-14 00:58:47,15.0883357,0.0001684,53.2168,280.3488,63.0947,297.0217,0.00018972,2.732e-05,0.0,0 STARLINK-4777,1 53847U 22114AF  23045.04083179  .00002732  00000-0  18972-3 0  9997,2 53847  53.2168 280.3488 0001684  63.0947 297.0217 15.08833570 23402,6917.9,95.438,540.93,538.6,0.0
53847.0,STARLINK-4777,PAYLOAD,2023-02-14 08:55:42,15.08848385,0.0001532,53.2174,278.8603,86.5211,273.5956,0.00039035,5.931e-05,0.0,0 STARLINK-4777,1 53847U 22114AF  23045.37202366  .00005931  00000-0  39035-3 0  9991,2 53847  53.2174 278.8603 0001532  86.5211 273.5956 15.08848385 23450,6917.855,95.437,540.78,538.66,0.0
53847.0,STARLINK-4777,PAYLOAD,2023-02-14 15:17:14,15.08856791,0.0001449,53.2173,277.6688,91.067,269.0488,0.00020866,3.036e-05,0.0,0 STARLINK-4777,1 53847U 22114AF  23045.63697323  .00003036  00000-0  20866-3 0  9997,2 53847  53.2173 277.6688 0001449  91.0670 269.0488 15.08856791 23490,6917.829,95.436,540.696,538.692,0.0
53847.0,STARLINK-4777,PAYLOAD,2023-02-14 23:14:08,15.08874281,0.0001615,53.2171,276.1824,90.0859,270.0318,0.00036286,5.497e-05,0.0,0 STARLINK-4777,1 53847U 22114AF  23045.96815619  .00005497  00000-0  36286-3 0  9999,2 53847  53.2171 276.1824 0001615  90.0859 270.0318 15.08874281 23541,6917.776,95.435,540.758,538.523,0.0
53847.0,STARLINK-4777,PAYLOAD,2023-02-15 08:46:28,15.08868717,5.98e-05,53.2171,274.3988,111.3221,248.7835,0.00040913,6.235e-05,0.0,0 STARLINK-4777,1 53847U 22114AF  23046.36560507  .00006235  00000-0  40913-3 0  9990,2 53847  53.2171 274.3988 0000598 111.3221 248.7835 15.08868717 23601,6917.793,95.436,540.071,539.244,0.0
